[{"OBJECT_NAME":"STARLINK-6158","OBJECT_ID":"2023-061B","EPOCH":"2026-03-09T22:00:01.999584","MEAN_MOTION":15.15207628,"ECCENTRICITY":0.00022961,"INCLINATION":43.0001,"RA_OF_ASC_NODE":195.9586,"ARG_OF_PERICENTER":267.0912,"MEAN_ANOMALY":36.8876,"EPHEMERIS_TYPE":0,"CLASSIFICATION_TYPE":"U","NORAD_CAT_ID":56375,"ELEMENT_SET_NO":999,"REV_AT_EPOCH":567,"BSTAR":0.064128885,"MEAN_MOTION_DOT":0.01331927,"MEAN_MOTION_DDOT":0},{"OBJECT_NAME":"AEROCUBE 16B","OBJECT_ID":"2024-053D","EPOCH":"2026-03-08T13:18:31.603680","MEAN_MOTION":15.40573981,"ECCENTRICITY":0.00037566,"INCLINATION":49.9908,"RA_OF_ASC_NODE":115.4511,"ARG_OF_PERICENTER":293.4512,"MEAN_ANOMALY":66.6055,"EPHEMERIS_TYPE":0,"CLASSIFICATION_TYPE":"U","NORAD_CAT_ID":59291,"ELEMENT_SET_NO":999,"REV_AT_EPOCH":10565,"BSTAR":0.00056476312,"MEAN_MOTION_DOT":0.00023043,"MEAN_MOTION_DDOT":0}]
